[{"OBJECT_NAME":"STARLINK-32693","OBJECT_ID":"2024-251F","EPOCH":"2026-03-09T22:32:10.583232","MEAN_MOTION":15.30183335,"ECCENTRICITY":0.00018731,"INCLINATION":53.1595,"RA_OF_ASC_NODE":331.4432,"ARG_OF_PERICENTER":133.8454,"MEAN_ANOMALY":226.2702,"EPHEMERIS_TYPE":0,"CLASSIFICATION_TYPE":"U","NORAD_CAT_ID":62437,"ELEMENT_SET_NO":999,"REV_AT_EPOCH":6802,"BSTAR":0.00088500833,"MEAN_MOTION_DOT":0.0002593,"MEAN_MOTION_DDOT":0},{"OBJECT_NAME":"COSMOS 2251 DEB","OBJECT_ID":"1993-036BTX","EPOCH":"2026-02-28T17:34:44.973408","MEAN_MOTION":15.25753352,"ECCENTRICITY":0.00216382,"INCLINATION":73.9681,"RA_OF_ASC_NODE":229.3494,"ARG_OF_PERICENTER":13.6287,"MEAN_ANOMALY":346.5492,"EPHEMERIS_TYPE":0,"CLASSIFICATION_TYPE":"U","NORAD_CAT_ID":38487,"ELEMENT_SET_NO":999,"REV_AT_EPOCH":67986,"BSTAR":0.0024802785,"MEAN_MOTION_DOT":0.00064261,"MEAN_MOTION_DDOT":0}]
